{
  "norad_id": 61231,
  "name": "2024-173E",
  "history": [
    {
      "epoch": "2026-03-25T07:29:54.347712Z",
      "apogee_km": 509.4879488658826,
      "perigee_km": 507.1747841415745,
      "latitude_deg": -1.9202810811095264e-06,
      "longitude_deg": -137.20389366837657,
      "height_km": 511.39999804133396,
      "semi_major_axis_km": 6886.468366503728,
      "eccentricity": 0.00016795,
      "inclination_deg": 97.4119,
      "raan_deg": 158.0503,
      "arg_perigee_deg": 89.1222,
      "mean_anomaly_deg": 271.0205,
      "mean_motion_rev_day": 15.19175426
    },
    {
      "epoch": "2026-03-31T19:59:58.950816Z",
      "apogee_km": 509.48631095651035,
      "perigee_km": 507.12288420022014,
      "latitude_deg": -1.6676137452290145e-05,
      "longitude_deg": 35.248746851111775,
      "height_km": 511.36167008256757,
      "semi_major_axis_km": 6886.441597578365,
      "eccentricity": 0.0001716,
      "inclination_deg": 97.4115,
      "raan_deg": 164.4494,
      "arg_perigee_deg": 88.5822,
      "mean_anomaly_deg": 271.5609,
      "mean_motion_rev_day": 15.19184284
    },
    {
      "epoch": "2026-04-01T10:13:36.994368Z",
      "apogee_km": 509.4887798737809,
      "perigee_km": 507.11378503892684,
      "latitude_deg": -1.7921028865705375e-05,
      "longitude_deg": -178.16245878001308,
      "height_km": 511.37316013472747,
      "semi_major_axis_km": 6886.438282456354,
      "eccentricity": 0.00017244,
      "inclination_deg": 97.4116,
      "raan_deg": 165.031,
      "arg_perigee_deg": 89.3042,
      "mean_anomaly_deg": 270.839,
      "mean_motion_rev_day": 15.19185381
    },
    {
      "epoch": "2026-04-04T20:25:47.861760Z",
      "apogee_km": 509.57622936987354,
      "perigee_km": 507.0970988507934,
      "latitude_deg": 1.4635814849606416e-05,
      "longitude_deg": 28.777598710248327,
      "height_km": 511.423407198786,
      "semi_major_axis_km": 6886.473664110333,
      "eccentricity": 0.00018,
      "inclination_deg": 97.4122,
      "raan_deg": 168.3923,
      "arg_perigee_deg": 90.0282,
      "mean_anomaly_deg": 270.1159,
      "mean_motion_rev_day": 15.19173673
    },
    {
      "epoch": "2026-04-05T13:49:08.082336Z",
      "apogee_km": 509.5610631950958,
      "perigee_km": 507.0948823590452,
      "latitude_deg": 2.219610109832235e-05,
      "longitude_deg": 127.94040535216021,
      "height_km": 511.4157814689955,
      "semi_major_axis_km": 6886.46497277707,
      "eccentricity": 0.00017906,
      "inclination_deg": 97.4123,
      "raan_deg": 169.1035,
      "arg_perigee_deg": 90.0771,
      "mean_anomaly_deg": 270.0669,
      "mean_motion_rev_day": 15.19176549
    },
    {
      "epoch": "2026-04-05T20:08:31.773696Z",
      "apogee_km": 509.5624575390693,
      "perigee_km": 507.088840155604,
      "latitude_deg": 6.042627009236211e-05,
      "longitude_deg": 33.09059938269307,
      "height_km": 511.40803774069036,
      "semi_major_axis_km": 6886.462648847336,
      "eccentricity": 0.0001796,
      "inclination_deg": 97.4123,
      "raan_deg": 169.3621,
      "arg_perigee_deg": 89.8265,
      "mean_anomaly_deg": 270.3176,
      "mean_motion_rev_day": 15.19177318
    },
    {
      "epoch": "2026-04-06T07:12:28.175904Z",
      "apogee_km": 509.5635900234847,
      "perigee_km": 507.0738608205156,
      "latitude_deg": 2.604167682289962e-05,
      "longitude_deg": -132.89635720868773,
      "height_km": 511.4068658198354,
      "semi_major_axis_km": 6886.455725422,
      "eccentricity": 0.00018077,
      "inclination_deg": 97.4122,
      "raan_deg": 169.8146,
      "arg_perigee_deg": 90.0927,
      "mean_anomaly_deg": 270.0515,
      "mean_motion_rev_day": 15.19179609
    },
    {
      "epoch": "2026-04-07T14:49:26.255136Z",
      "apogee_km": 509.5491826132866,
      "perigee_km": 507.0590455064421,
      "latitude_deg": 2.233450825249882e-05,
      "longitude_deg": 112.85621447425677,
      "height_km": 511.3898349291405,
      "semi_major_axis_km": 6886.441114059864,
      "eccentricity": 0.0001808,
      "inclination_deg": 97.412,
      "raan_deg": 171.1076,
      "arg_perigee_deg": 89.9808,
      "mean_anomaly_deg": 270.1634,
      "mean_motion_rev_day": 15.19184444
    },
    {
      "epoch": "2026-04-09T20:34:20.019360Z",
      "apogee_km": 509.49330295468735,
      "perigee_km": 507.2427931049915,
      "latitude_deg": 2.221973140822189e-05,
      "longitude_deg": 26.622627261646095,
      "height_km": 511.43094103423374,
      "semi_major_axis_km": 6886.50504802984,
      "eccentricity": 0.0001634,
      "inclination_deg": 97.4125,
      "raan_deg": 173.3054,
      "arg_perigee_deg": 88.8035,
      "mean_anomaly_deg": 271.3387,
      "mean_motion_rev_day": 15.19163288
    },
    {
      "epoch": "2026-04-10T06:03:25.833312Z",
      "apogee_km": 509.4870363107675,
      "perigee_km": 507.2407974417001,
      "latitude_deg": -4.3442390630710736e-05,
      "longitude_deg": -115.65322304643908,
      "height_km": 511.4303555864625,
      "semi_major_axis_km": 6886.5009168762335,
      "eccentricity": 0.00016309,
      "inclination_deg": 97.4124,
      "raan_deg": 173.6933,
      "arg_perigee_deg": 88.9811,
      "mean_anomaly_deg": 271.161,
      "mean_motion_rev_day": 15.19164655
    },
    {
      "epoch": "2026-04-11T19:59:48.942240Z",
      "apogee_km": 509.45556552600556,
      "perigee_km": 507.253265571313,
      "latitude_deg": 1.9745953452857046e-05,
      "longitude_deg": 35.24354822940041,
      "height_km": 511.4285094233496,
      "semi_major_axis_km": 6886.491415548659,
      "eccentricity": 0.0001599,
      "inclination_deg": 97.4122,
      "raan_deg": 175.2445,
      "arg_perigee_deg": 89.3562,
      "mean_anomaly_deg": 270.7856,
      "mean_motion_rev_day": 15.19167799
    },
    {
      "epoch": "2026-04-13T06:46:29.857728Z",
      "apogee_km": 509.4329771644416,
      "perigee_km": 507.25850137469024,
      "latitude_deg": 5.016060633544982e-05,
      "longitude_deg": -126.4332205344208,
      "height_km": 511.4244405649192,
      "semi_major_axis_km": 6886.482739269566,
      "eccentricity": 0.00015788,
      "inclination_deg": 97.4121,
      "raan_deg": 176.6665,
      "arg_perigee_deg": 89.5888,
      "mean_anomaly_deg": 270.5528,
      "mean_motion_rev_day": 15.1917067
    },
    {
      "epoch": "2026-04-14T20:42:52.423200Z",
      "apogee_km": 509.43109754252873,
      "perigee_km": 507.24395323326553,
      "latitude_deg": -5.597760227708063e-05,
      "longitude_deg": 24.46604805320737,
      "height_km": 511.4252434219406,
      "semi_major_axis_km": 6886.474525387897,
      "eccentricity": 0.0001588,
      "inclination_deg": 97.4119,
      "raan_deg": 178.2179,
      "arg_perigee_deg": 90.063,
      "mean_anomaly_deg": 270.0786,
      "mean_motion_rev_day": 15.19173388
    },
    {
      "epoch": "2026-04-15T20:25:36.405984Z",
      "apogee_km": 509.4259230155549,
      "perigee_km": 507.2387803494612,
      "latitude_deg": 4.4371251354113e-05,
      "longitude_deg": 28.778449214637735,
      "height_km": 511.429941208322,
      "semi_major_axis_km": 6886.469351682508,
      "eccentricity": 0.0001588,
      "inclination_deg": 97.4118,
      "raan_deg": 179.1874,
      "arg_perigee_deg": 90.5806,
      "mean_anomaly_deg": 269.5611,
      "mean_motion_rev_day": 15.191751
    },
    {
      "epoch": "2026-04-16T20:08:20.291136Z",
      "apogee_km": 509.4132893378646,
      "perigee_km": 507.2357901989899,
      "latitude_deg": 2.544943082769308e-05,
      "longitude_deg": 33.09137369405305,
      "height_km": 511.42743350057515,
      "semi_major_axis_km": 6886.461539768427,
      "eccentricity": 0.0001581,
      "inclination_deg": 97.4118,
      "raan_deg": 180.157,
      "arg_perigee_deg": 90.8613,
      "mean_anomaly_deg": 269.2803,
      "mean_motion_rev_day": 15.19177685
    },
    {
      "epoch": "2026-04-17T23:00:45.864288Z",
      "apogee_km": 509.388315001941,
      "perigee_km": 507.2415324792346,
      "latitude_deg": -1.3859194229565468e-05,
      "longitude_deg": -10.020141136650278,
      "height_km": 511.4331693838384,
      "semi_major_axis_km": 6886.4519237405875,
      "eccentricity": 0.00015587,
      "inclination_deg": 97.4116,
      "raan_deg": 181.2557,
      "arg_perigee_deg": 91.6902,
      "mean_anomaly_deg": 268.4511,
      "mean_motion_rev_day": 15.19180867
    },
    {
      "epoch": "2026-04-18T17:58:56.686944Z",
      "apogee_km": 509.38201024016234,
      "perigee_km": 507.23206241202115,
      "latitude_deg": -3.8192049395266255e-05,
      "longitude_deg": 65.4316108669205,
      "height_km": 511.42940885681315,
      "semi_major_axis_km": 6886.444036326091,
      "eccentricity": 0.0001561,
      "inclination_deg": 97.4119,
      "raan_deg": 182.0316,
      "arg_perigee_deg": 91.908,
      "mean_anomaly_deg": 268.2333,
      "mean_motion_rev_day": 15.19183477
    },
    {
      "epoch": "2026-04-19T20:51:23.637312Z",
      "apogee_km": 509.51333014345346,
      "perigee_km": 507.23664927965547,
      "latitude_deg": 2.918994170239535e-07,
      "longitude_deg": 22.314729352089447,
      "height_km": 511.47038170637376,
      "semi_major_axis_km": 6886.511989711555,
      "eccentricity": 0.0001653,
      "inclination_deg": 97.4125,
      "raan_deg": 183.1307,
      "arg_perigee_deg": 90.4544,
      "mean_anomaly_deg": 269.688,
      "mean_motion_rev_day": 15.19160991
    },
    {
      "epoch": "2026-04-20T14:14:44.467008Z",
      "apogee_km": 509.51250708986663,
      "perigee_km": 507.2299050798774,
      "latitude_deg": -4.822708243331367e-05,
      "longitude_deg": 121.47489799615036,
      "height_km": 511.4719136748738,
      "semi_major_axis_km": 6886.508206084872,
      "eccentricity": 0.00016573,
      "inclination_deg": 97.4124,
      "raan_deg": 183.8418,
      "arg_perigee_deg": 90.7198,
      "mean_anomaly_deg": 269.4226,
      "mean_motion_rev_day": 15.19162243
    }
  ]
}